[{"OBJECT_NAME":"TITAN 3C TRANSTAGE R/B","OBJECT_ID":"1969-013B","EPOCH":"2026-03-07T15:10:32.104992","MEAN_MOTION":0.97534219,"ECCENTRICITY":0.01656658,"INCLINATION":1.0426,"RA_OF_ASC_NODE":77.3215,"ARG_OF_PERICENTER":36.1199,"MEAN_ANOMALY":358.1345,"EPHEMERIS_TYPE":0,"CLASSIFICATION_TYPE":"U","NORAD_CAT_ID":3692,"ELEMENT_SET_NO":999,"REV_AT_EPOCH":4133,"BSTAR":0,"MEAN_MOTION_DOT":-4.7e-7,"MEAN_MOTION_DDOT":0},{"OBJECT_NAME":"TITAN 3C TRANSTAGE R/B","OBJECT_ID":"1969-046F","EPOCH":"2026-03-08T20:12:19.890432","MEAN_MOTION":0.46198463,"ECCENTRICITY":0.802739,"INCLINATION":17.1532,"RA_OF_ASC_NODE":36.2834,"ARG_OF_PERICENTER":268.5878,"MEAN_ANOMALY":1.071,"EPHEMERIS_TYPE":0,"CLASSIFICATION_TYPE":"U","NORAD_CAT_ID":3956,"ELEMENT_SET_NO":999,"REV_AT_EPOCH":2063,"BSTAR":0,"MEAN_MOTION_DOT":-7.63e-6,"MEAN_MOTION_DDOT":0},{"OBJECT_NAME":"ATS 5","OBJECT_ID":"1969-069A","EPOCH":"2026-03-07T15:18:30.104352","MEAN_MOTION":0.99487082,"ECCENTRICITY":0.00062282,"INCLINATION":0.2837,"RA_OF_ASC_NODE":212.4283,"ARG_OF_PERICENTER":69.1561,"MEAN_ANOMALY":179.7646,"EPHEMERIS_TYPE":0,"CLASSIFICATION_TYPE":"U","NORAD_CAT_ID":4068,"ELEMENT_SET_NO":999,"REV_AT_EPOCH":4531,"BSTAR":0,"MEAN_MOTION_DOT":9.0e-7,"MEAN_MOTION_DDOT":0},{"OBJECT_NAME":"ATLAS CENTAUR R/B","OBJECT_ID":"1969-069B","EPOCH":"2026-03-07T02:13:09.785568","MEAN_MOTION":2.04799733,"ECCENTRICITY":0.66832541,"INCLINATION":17.5984,"RA_OF_ASC_NODE":310.7382,"ARG_OF_PERICENTER":195.82,"MEAN_ANOMALY":123.4481,"EPHEMERIS_TYPE":0,"CLASSIFICATION_TYPE":"U","NORAD_CAT_ID":4069,"ELEMENT_SET_NO":999,"REV_AT_EPOCH":42311,"BSTAR":0,"MEAN_MOTION_DOT":-3.62e-6,"MEAN_MOTION_DDOT":0},{"OBJECT_NAME":"SKYNET 1A","OBJECT_ID":"1969-101A","EPOCH":"2026-03-07T06:34:55.161120","MEAN_MOTION":1.00271898,"ECCENTRICITY":0.0025295,"INCLINATION":0.18,"RA_OF_ASC_NODE":73.5353,"ARG_OF_PERICENTER":169.7906,"MEAN_ANOMALY":277.3147,"EPHEMERIS_TYPE":0,"CLASSIFICATION_TYPE":"U","NORAD_CAT_ID":4250,"ELEMENT_SET_NO":999,"REV_AT_EPOCH":13349,"BSTAR":0,"MEAN_MOTION_DOT":-1.03e-6,"MEAN_MOTION_DDOT":0},{"OBJECT_NAME":"NATO 2A","OBJECT_ID":"1970-021A","EPOCH":"2026-03-07T06:33:32.791680","MEAN_MOTION":1.00279694,"ECCENTRICITY":0.0003023,"INCLINATION":0.656,"RA_OF_ASC_NODE":296.2493,"ARG_OF_PERICENTER":324.7908,"MEAN_ANOMALY":254.4318,"EPHEMERIS_TYPE":0,"CLASSIFICATION_TYPE":"U","NORAD_CAT_ID":4353,"ELEMENT_SET_NO":999,"REV_AT_EPOCH":12474,"BSTAR":0,"MEAN_MOTION_DOT":-7.4e-7,"MEAN_MOTION_DDOT":0},{"OBJECT_NAME":"INTELSAT 3-F7","OBJECT_ID":"1970-032A","EPOCH":"2026-03-07T11:51:32.424192","MEAN_MOTION":1.00369687,"ECCENTRICITY":0.00049741,"INCLINATION":2.1652,"RA_OF_ASC_NODE":89.8381,"ARG_OF_PERICENTER":223.4495,"MEAN_ANOMALY":137.0768,"EPHEMERIS_TYPE":0,"CLASSIFICATION_TYPE":"U","NORAD_CAT_ID":4376,"ELEMENT_SET_NO":999,"REV_AT_EPOCH":4634,"BSTAR":0,"MEAN_MOTION_DOT":-3.5e-6,"MEAN_MOTION_DDOT":0},{"OBJECT_NAME":"INTELSAT 3-F8","OBJECT_ID":"1970-055A","EPOCH":"2026-03-07T06:59:07.841472","MEAN_MOTION":1.02262993,"ECCENTRICITY":0.03165531,"INCLINATION":5.2109,"RA_OF_ASC_NODE":70.4578,"ARG_OF_PERICENTER":113.7955,"MEAN_ANOMALY":63.4215,"EPHEMERIS_TYPE":0,"CLASSIFICATION_TYPE":"U","NORAD_CAT_ID":4478,"ELEMENT_SET_NO":999,"REV_AT_EPOCH":12178,"BSTAR":0,"MEAN_MOTION_DOT":-4.6e-7,"MEAN_MOTION_DDOT":0},{"OBJECT_NAME":"OPS 7329","OBJECT_ID":"1970-069A","EPOCH":"2026-03-07T04:58:11.934048","MEAN_MOTION":1.00176102,"ECCENTRICITY":0.1014683,"INCLINATION":10.5433,"RA_OF_ASC_NODE":160.3066,"ARG_OF_PERICENTER":105.5221,"MEAN_ANOMALY":262.5555,"EPHEMERIS_TYPE":0,"CLASSIFICATION_TYPE":"U","NORAD_CAT_ID":4510,"ELEMENT_SET_NO":999,"REV_AT_EPOCH":2376,"BSTAR":0,"MEAN_MOTION_DOT":-2.86e-6,"MEAN_MOTION_DDOT":0},{"OBJECT_NAME":"ATLAS AGENA D R/B","OBJECT_ID":"1970-046B","EPOCH":"2026-03-07T09:25:03.632160","MEAN_MOTION":1.00402883,"ECCENTRICITY":0.0031214,"INCLINATION":1.4353,"RA_OF_ASC_NODE":85.9168,"ARG_OF_PERICENTER":303.0051,"MEAN_ANOMALY":57.557,"EPHEMERIS_TYPE":0,"CLASSIFICATION_TYPE":"U","NORAD_CAT_ID":4511,"ELEMENT_SET_NO":999,"REV_AT_EPOCH":2453,"BSTAR":0,"MEAN_MOTION_DOT":-2.59e-6,"MEAN_MOTION_DDOT":0},{"OBJECT_NAME":"OPS 5960 (DSP 1)","OBJECT_ID":"1970-093A","EPOCH":"2026-03-07T05:11:13.676928","MEAN_MOTION":1.20217038,"ECCENTRICITY":0.1364982,"INCLINATION":14.9812,"RA_OF_ASC_NODE":38.0734,"ARG_OF_PERICENTER":273.3783,"MEAN_ANOMALY":282.1157,"EPHEMERIS_TYPE":0,"CLASSIFICATION_TYPE":"U","NORAD_CAT_ID":4630,"ELEMENT_SET_NO":999,"REV_AT_EPOCH":24261,"BSTAR":0,"MEAN_MOTION_DOT":-1.54e-6,"MEAN_MOTION_DDOT":0},{"OBJECT_NAME":"TITAN 3C TRANSTAGE R/B","OBJECT_ID":"1970-093B","EPOCH":"2026-03-07T02:51:09.116928","MEAN_MOTION":1.20232012,"ECCENTRICITY":0.13710664,"INCLINATION":14.9817,"RA_OF_ASC_NODE":37.7563,"ARG_OF_PERICENTER":273.4469,"MEAN_ANOMALY":71.9329,"EPHEMERIS_TYPE":0,"CLASSIFICATION_TYPE":"U","NORAD_CAT_ID":4632,"ELEMENT_SET_NO":999,"REV_AT_EPOCH":14118,"BSTAR":0,"MEAN_MOTION_DOT":-1.54e-6,"MEAN_MOTION_DDOT":0},{"OBJECT_NAME":"ATLAS CENTAUR R/B","OBJECT_ID":"1971-006B","EPOCH":"2026-03-07T14:30:33.176160","MEAN_MOTION":2.20764505,"ECCENTRICITY":0.71907963,"INCLINATION":28.0691,"RA_OF_ASC_NODE":289.3641,"ARG_OF_PERICENTER":3.2798,"MEAN_ANOMALY":359.7556,"EPHEMERIS_TYPE":0,"CLASSIFICATION_TYPE":"U","NORAD_CAT_ID":4882,"ELEMENT_SET_NO":999,"REV_AT_EPOCH":44095,"BSTAR":0.0010095258,"MEAN_MOTION_DOT":-3.8e-7,"MEAN_MOTION_DDOT":0},{"OBJECT_NAME":"NATO 2B","OBJECT_ID":"1971-009A","EPOCH":"2026-03-07T06:34:25.208832","MEAN_MOTION":1.00272282,"ECCENTRICITY":9.73e-5,"INCLINATION":1.4009,"RA_OF_ASC_NODE":251.407,"ARG_OF_PERICENTER":238.5145,"MEAN_ANOMALY":28.6897,"EPHEMERIS_TYPE":0,"CLASSIFICATION_TYPE":"U","NORAD_CAT_ID":4902,"ELEMENT_SET_NO":999,"REV_AT_EPOCH":11761,"BSTAR":0,"MEAN_MOTION_DOT":-9.1e-7,"MEAN_MOTION_DDOT":0},{"OBJECT_NAME":"TITAN 34B AGENA D R/B","OBJECT_ID":"1971-021B","EPOCH":"2026-03-02T22:48:24.680160","MEAN_MOTION":2.2008731,"ECCENTRICITY":0.72990152,"INCLINATION":63.5252,"RA_OF_ASC_NODE":31.4297,"ARG_OF_PERICENTER":267.2496,"MEAN_ANOMALY":15.5729,"EPHEMERIS_TYPE":0,"CLASSIFICATION_TYPE":"U","NORAD_CAT_ID":5054,"ELEMENT_SET_NO":999,"REV_AT_EPOCH":5477,"BSTAR":0.00070893234,"MEAN_MOTION_DOT":3.54e-6,"MEAN_MOTION_DDOT":0},{"OBJECT_NAME":"OPS 9431 (DSCS 2-1)","OBJECT_ID":"1971-095A","EPOCH":"2026-03-07T07:20:38.628960","MEAN_MOTION":1.00274315,"ECCENTRICITY":0.00061698,"INCLINATION":1.8478,"RA_OF_ASC_NODE":257.3958,"ARG_OF_PERICENTER":14.5385,"MEAN_ANOMALY":264.422,"EPHEMERIS_TYPE":0,"CLASSIFICATION_TYPE":"U","NORAD_CAT_ID":5587,"ELEMENT_SET_NO":999,"REV_AT_EPOCH":12099,"BSTAR":0,"MEAN_MOTION_DOT":-1.3e-6,"MEAN_MOTION_DDOT":0},{"OBJECT_NAME":"OPS 9432 (DSCS 2-2)","OBJECT_ID":"1971-095B","EPOCH":"2026-03-07T10:45:38.812896","MEAN_MOTION":1.00248136,"ECCENTRICITY":0.00050113,"INCLINATION":1.8104,"RA_OF_ASC_NODE":258.747,"ARG_OF_PERICENTER":65.3605,"MEAN_ANOMALY":148.0448,"EPHEMERIS_TYPE":0,"CLASSIFICATION_TYPE":"U","NORAD_CAT_ID":5588,"ELEMENT_SET_NO":999,"REV_AT_EPOCH":4634,"BSTAR":0,"MEAN_MOTION_DOT":-2.44e-6,"MEAN_MOTION_DDOT":0}]
