TITAN 3C TRANSTAGE R/B  
1 03692U 69013B   26066.63231603 -.00000047  00000+0  00000+0 0  9993
2 03692   1.0426  77.3215 0165665  36.1199 358.1345  0.97534219 41338
TITAN 3C TRANSTAGE R/B  
1 03956U 69046F   26067.84189688 -.00000763  00000+0  00000+0 0  9996
2 03956  17.1532  36.2834 8027390 268.5878   1.0710  0.46198463 20634
ATS 5                   
1 04068U 69069A   26066.63784843  .00000090  00000+0  00000+0 0  9998
2 04068   0.2837 212.4283 0006228  69.1561 179.7646  0.99487082 45318
ATLAS CENTAUR R/B       
1 04069U 69069B   26066.09247437 -.00000362  00000+0  00000+0 0  9995
2 04069  17.5984 310.7382 6683254 195.8200 123.4481  2.04799733423116
SKYNET 1A               
1 04250U 69101A   26066.27424955 -.00000103  00000+0  00000+0 0  9999
2 04250   0.1800  73.5353 0025295 169.7906 277.3147  1.00271898133496
NATO 2A                 
1 04353U 70021A   26066.27329620 -.00000074  00000+0  00000+0 0  9996
2 04353   0.6560 296.2493 0003023 324.7908 254.4318  1.00279694124743
INTELSAT 3-F7           
1 04376U 70032A   26066.49412528 -.00000350  00000+0  00000+0 0  9994
2 04376   2.1652  89.8381 0004974 223.4495 137.0768  1.00369687 46347
INTELSAT 3-F8           
1 04478U 70055A   26066.29106298 -.00000046  00000+0  00000+0 0  9996
2 04478   5.2109  70.4578 0316553 113.7955  63.4215  1.02262993121781
OPS 7329                
1 04510U 70069A   26066.20708257 -.00000286  00000+0  00000+0 0  9998
2 04510  10.5433 160.3066 1014683 105.5221 262.5555  1.00176102 23765
ATLAS AGENA D R/B       
1 04511U 70046B   26066.39240315 -.00000259  00000+0  00000+0 0  9990
2 04511   1.4353  85.9168 0031214 303.0051  57.5570  1.00402883 24538
OPS 5960 (DSP 1)        
1 04630U 70093A   26066.21613052 -.00000154  00000+0  00000+0 0  9991
2 04630  14.9812  38.0734 1364982 273.3783 282.1157  1.20217038242616
TITAN 3C TRANSTAGE R/B  
1 04632U 70093B   26066.11885552 -.00000154  00000+0  00000+0 0  9998
2 04632  14.9817  37.7563 1371066 273.4469  71.9329  1.20232012141186
ATLAS CENTAUR R/B       
1 04882U 71006B   26066.60455065 -.00000038  00000+0  10095-2 0  9995
2 04882  28.0691 289.3641 7190796   3.2798 359.7556  2.20764505440954
NATO 2B                 
1 04902U 71009A   26066.27390288 -.00000091  00000+0  00000+0 0  9990
2 04902   1.4009 251.4070 0000973 238.5145  28.6897  1.00272282117617
TITAN 34B AGENA D R/B   
1 05054U 71021B   26061.95028565  .00000354  00000+0  70893-3 0  9991
2 05054  63.5252  31.4297 7299015 267.2496  15.5729  2.20087310 54779
OPS 9431 (DSCS 2-1)     
1 05587U 71095A   26066.30600265 -.00000130  00000+0  00000+0 0  9992
2 05587   1.8478 257.3958 0006169  14.5385 264.4220  1.00274315120996
OPS 9432 (DSCS 2-2)     
1 05588U 71095B   26066.44836589 -.00000244  00000+0  00000+0 0  9994
2 05588   1.8104 258.7470 0005011  65.3605 148.0448  1.00248136 46348
